ONEWEB-0159             
1 48062U 21025W   25340.61399170 -.00000169  00000+0 -49647-3 0  9990
2 48062  87.8988 358.4787 0001495  90.5967 269.5334 13.13470250228322
ONEWEB-0164             
1 48063U 21025X   25340.59536975  .00000242  00000+0  62744-3 0  9997
2 48063  87.8987 358.4896 0001828  92.5869 267.5469 13.13470094228307
ONEWEB-0167             
1 48064U 21025Y   25340.62330384 -.00000277  00000+0 -79389-3 0  9991
2 48064  87.8978 358.5117 0001893  70.1422 289.9911 13.13468607228299
ONEWEB-0166             
1 48065U 21025Z   25340.56997989  .00000176  00000+0  44707-3 0  9997
2 48065  87.8986 358.4781 0001545  94.2539 265.8766 13.13471588228366
ONEWEB-0151             
1 48066U 21025AA  25340.57167453  .00000224  00000+0  57726-3 0  9993
2 48066  87.8987 358.5043 0001783  87.6088 272.5245 13.13471316228309
ONEWEB-0170             
1 48067U 21025AB  25340.58013918  .00000381  00000+0  10072-2 0  9997
2 48067  87.8981 358.5079 0002212  88.5743 271.5639 13.13471281228261
ONEWEB-0168             
1 48068U 21025AC  25340.56490063  .00000023  00000+0  28819-4 0  9999
2 48068  87.8991 358.4953 0001560  88.1255 272.0053 13.13471581228272
ONEWEB-0173             
1 48069U 21025AD  25340.55643359 -.00000148  00000+0 -43976-3 0  9997
2 48069  87.8991 358.5048 0001556  78.7604 281.3700 13.13471660228514
